{"type":"FeatureCollection","crs":{"type":"name","properties":{"name":"EPSG:4326"}},"features":[{"type":"Feature","geometry":{"type":"Point","coordinates":[116.328052,39.896492]},"properties":{"amenity":"bank"},"id":"fid--c471a97_176ef2b6e7b_-5500"},{"type":"Feature","geometry":{"type":"Point","coordinates":[116.328127,39.896517]},"properties":{"amenity":"atm"},"id":"fid--c471a97_176ef2b6e7b_-54ff"},{"type":"Feature","geometry":{"type":"Point","coordinates":[116.3093,39.885941]},"properties":{"amenity":"bank"},"id":"fid--c471a97_176ef2b6e7b_-54fe"},{"type":"Feature","geometry":{"type":"Point","coordinates":[116.324835,39.907195]},"properties":{"amenity":"bank"},"id":"fid--c471a97_176ef2b6e7b_-54fd"},{"type":"Feature","geometry":{"type":"Point","coordinates":[116.339129,39.889363]},"properties":{"amenity":"bank"},"id":"fid--c471a97_176ef2b6e7b_-54fc"},{"type":"Feature","geometry":{"type":"Point","coordinates":[116.323281,39.890552]},"properties":{"amenity":"bank"},"id":"fid--c471a97_176ef2b6e7b_-54fb"},{"type":"Feature","geometry":{"type":"Point","coordinates":[116.323128,39.890564]},"properties":{"amenity":"bank"},"id":"fid--c471a97_176ef2b6e7b_-54fa"},{"type":"Feature","geometry":{"type":"Point","coordinates":[116.32383,39.890531]},"properties":{"amenity":"bank"},"id":"fid--c471a97_176ef2b6e7b_-54f9"}]}